{
  "norad_id": 60211,
  "name": "TIANHUI 5C",
  "history": [
    {
      "epoch": "2026-03-27T12:10:50.611872",
      "apogee_km": 606.5715184381443,
      "perigee_km": 604.3982153131728,
      "latitude_deg": 25.620326475562983,
      "longitude_deg": 153.82290208013728,
      "semi_major_axis_km": 6983.621866875658,
      "eccentricity": 0.0001556,
      "inclination_deg": 97.8213,
      "raan_deg": 95.2228,
      "arg_perigee_deg": 89.2185,
      "mean_anomaly_deg": 270.9209,
      "mean_motion_rev_day": 14.87584648
    }
  ]
}