{"fetched_at":"2026-03-29T02:12:04Z","count":15717,"tles":[{"name":"TIANHUI 5C","line1":"1 60211U 24126A   26086.50753023  .00000471  00000+0  57793-4 0  9998","line2":"2 60211  97.8213  95.2228 0001556  89.2185 270.9209 14.87584648 93747","category":"Other"}]}